{
  "version": 1,
  "fetchedAt": "2026-06-16T15:59:31.869Z",
  "source": "celestrak-gp",
  "counts": {
    "station": 25,
    "satellite": 400,
    "debris": 111
  },
  "objects": [
    {
      "id": "43055",
      "name": "GSAT0215 (GALILEO 19)",
      "noradId": 43055,
      "line1": "1 43055U 17079A   26166.25586332  .00000056  00000+0  00000+0 0  9995",
      "line2": "2 43055  55.0739 221.5600 0003063 263.0342  97.0324  1.70474552 52957",
      "category": "satellite"
    },
    {
      "id": "43056",
      "name": "GSAT0216 (GALILEO 20)",
      "noradId": 43056,
      "line1": "1 43056U 17079B   26164.78727197  .00000061  00000+0  00000+0 0  9994",
      "line2": "2 43056  55.0743 221.6004 0004468 275.6764  84.3739  1.70474522 52944",
      "category": "satellite"
    },
    {
      "id": "43057",
      "name": "GSAT0217 (GALILEO 21)",
      "noradId": 43057,
      "line1": "1 43057U 17079C   26166.18122907  .00000056  00000+0  00000+0 0  9993",
      "line2": "2 43057  55.0707 221.5599 0004444 284.3881  75.6642  1.70474278 52959",
      "category": "satellite"
    },
    {
      "id": "43058",
      "name": "GSAT0218 (GALILEO 22)",
      "noradId": 43058,
      "line1": "1 43058U 17079D   26164.05497403  .00000061  00000+0  00000+0 0  9990",
      "line2": "2 43058  55.0728 221.6159 0005024 272.4694  87.5720  1.70474471 52944",
      "category": "satellite"
    },
    {
      "id": "43107",
      "name": "BEIDOU-3 M7 (C27)",
      "noradId": 43107,
      "line1": "1 43107U 18003A   26167.27659787 -.00000071  00000+0  00000+0 0  9997",
      "line2": "2 43107  54.3293 302.3474 0004873  93.9647 266.0776  1.86228067 57338",
      "category": "satellite"
    },
    {
      "id": "43108",
      "name": "BEIDOU-3 M8 (C28)",
      "noradId": 43108,
      "line1": "1 43108U 18003B   26166.68442619 -.00000071  00000+0  00000+0 0  9996",
      "line2": "2 43108  54.3221 302.3497 0002596 261.7329  98.2226  1.86230980 57339",
      "category": "satellite"
    },
    {
      "id": "43207",
      "name": "BEIDOU-3 M4 (C22)",
      "noradId": 43207,
      "line1": "1 43207U 18018A   26167.12742264 -.00000050  00000+0  00000+0 0  9998",
      "line2": "2 43207  56.6499  63.1838 0007711  19.0983 340.9685  1.86230832 56720",
      "category": "satellite"
    },
    {
      "id": "43208",
      "name": "BEIDOU-3 M3 (C21)",
      "noradId": 43208,
      "line1": "1 43208U 18018B   26164.50910292 -.00000055  00000+0  00000+0 0  9991",
      "line2": "2 43208  56.6473  63.2743 0008681 341.1223  18.8726  1.86230755 56677",
      "category": "satellite"
    },
    {
      "id": "43245",
      "name": "BEIDOU-3 M9 (C29)",
      "noradId": 43245,
      "line1": "1 43245U 18029A   26166.87474098 -.00000068  00000+0  00000+0 0  9999",
      "line2": "2 43245  54.1952 299.9946 0000998 157.7583 202.2335  1.86228026 55873",
      "category": "satellite"
    },
    {
      "id": "43246",
      "name": "BEIDOU-3 M10 (C30)",
      "noradId": 43246,
      "line1": "1 43246U 18029B   26166.80910538 -.00000068  00000+0  00000+0 0  9997",
      "line2": "2 43246  54.1929 300.0239 0003824  39.5387 320.4763  1.86229169 55852",
      "category": "satellite"
    },
    {
      "id": "43286",
      "name": "IRNSS-1I",
      "noradId": 43286,
      "line1": "1 43286U 18035A   26166.83981681  .00000062  00000+0  00000+0 0  9991",
      "line2": "2 43286  28.7520  74.2167 0017811 181.5598   5.5147  1.00272046 30064",
      "category": "satellite"
    },
    {
      "id": "43508",
      "name": "COSMOS 2527 (756)",
      "noradId": 43508,
      "line1": "1 43508U 18053A   26166.20762226 -.00000024  00000+0  00000+0 0  9990",
      "line2": "2 43508  65.5763  73.9738 0007190 240.2222 119.7330  2.13102160 62235",
      "category": "satellite"
    },
    {
      "id": "43539",
      "name": "BEIDOU-2 IGSO-7 (C16)",
      "noradId": 43539,
      "line1": "1 43539U 18057A   26166.92202744 -.00000027  00000+0  00000+0 0  9994",
      "line2": "2 43539  55.1938 163.0687 0105067 238.0100 305.1025  1.00251416 29110",
      "category": "satellite"
    },
    {
      "id": "43564",
      "name": "GSAT0221 (GALILEO 25)",
      "noradId": 43564,
      "line1": "1 43564U 18060A   26166.89180791 -.00000084  00000+0  00000+0 0  9992",
      "line2": "2 43564  57.1691 341.8152 0002613 304.4017  55.5708  1.70475876 49141",
      "category": "satellite"
    },
    {
      "id": "43565",
      "name": "GSAT0222 (GALILEO 26)",
      "noradId": 43565,
      "line1": "1 43565U 18060B   26166.52487846 -.00000083  00000+0  00000+0 0  9993",
      "line2": "2 43565  57.1732 341.8288 0001964 249.0042 110.9733  1.70475624 49187",
      "category": "satellite"
    },
    {
      "id": "43566",
      "name": "GSAT0219 (GALILEO 23)",
      "noradId": 43566,
      "line1": "1 43566U 18060C   26164.98602962 -.00000076  00000+0  00000+0 0  9992",
      "line2": "2 43566  57.1733 341.8717 0002109 326.6126  33.3787  1.70475843 49138",
      "category": "satellite"
    },
    {
      "id": "43567",
      "name": "GSAT0220 (GALILEO 24)",
      "noradId": 43567,
      "line1": "1 43567U 18060D   26165.20701180 -.00000077  00000+0  00000+0 0  9992",
      "line2": "2 43567  57.1756 341.8658 0002157 311.2111  48.7740  1.70475528 49123",
      "category": "satellite"
    },
    {
      "id": "43581",
      "name": "BEIDOU-3 M5 (C23)",
      "noradId": 43581,
      "line1": "1 43581U 18062A   26167.03318775  .00000073  00000+0  00000+0 0  9992",
      "line2": "2 43581  54.0851 182.3434 0005538 288.6554  71.3241  1.86228715 53613",
      "category": "satellite"
    },
    {
      "id": "43582",
      "name": "BEIDOU-3 M6 (C24)",
      "noradId": 43582,
      "line1": "1 43582U 18062B   26166.35970745  .00000083  00000+0  00000+0 0  9999",
      "line2": "2 43582  54.0850 182.3554 0004918   8.9960 351.0582  1.86227634 53605",
      "category": "satellite"
    },
    {
      "id": "43602",
      "name": "BEIDOU-3 M12 (C26)",
      "noradId": 43602,
      "line1": "1 43602U 18067A   26165.76115788  .00000093  00000+0  00000+0 0  9990",
      "line2": "2 43602  54.1799 181.1228 0007735  29.8475 330.2441  1.86227714 53072",
      "category": "satellite"
    },
    {
      "id": "43603",
      "name": "BEIDOU-3 M11 (C25)",
      "noradId": 43603,
      "line1": "1 43603U 18067B   26165.35925920  .00000099  00000+0  00000+0 0  9999",
      "line2": "2 43603  54.1775 181.0999 0004437  12.9310 347.1309  1.86227183 53090",
      "category": "satellite"
    },
    {
      "id": "43622",
      "name": "BEIDOU-3 M13 (C32)",
      "noradId": 43622,
      "line1": "1 43622U 18072A   26166.92498194 -.00000051  00000+0  00000+0 0  9997",
      "line2": "2 43622  56.6234  62.7019 0007311 328.8537  31.1409  1.86231268 52639",
      "category": "satellite"
    },
    {
      "id": "43623",
      "name": "BEIDOU-3 M14 (C33)",
      "noradId": 43623,
      "line1": "1 43623U 18072B   26166.25345462 -.00000052  00000+0  00000+0 0  9994",
      "line2": "2 43623  56.6245  62.7184 0006162 359.3015   0.7328  1.86231360 52611",
      "category": "satellite"
    },
    {
      "id": "43647",
      "name": "BEIDOU-3 M16 (C35)",
      "noradId": 43647,
      "line1": "1 43647U 18078A   26166.94574844 -.00000068  00000+0  00000+0 0  9997",
      "line2": "2 43647  54.0911 300.0295 0007191  40.9079 319.1335  1.86232180 52139",
      "category": "satellite"
    },
    {
      "id": "43648",
      "name": "BEIDOU-3 M15 (C34)",
      "noradId": 43648,
      "line1": "1 43648U 18078B   26165.46418844 -.00000068  00000+0  00000+0 0  9991",
      "line2": "2 43648  54.0883 300.0818 0004204  57.5981 302.4264  1.86232267 52128",
      "category": "satellite"
    },
    {
      "id": "43683",
      "name": "BEIDOU-3 G1 (C59)",
      "noradId": 43683,
      "line1": "1 43683U 18085A   26167.21747650 -.00000111  00000+0  00000+0 0  9992",
      "line2": "2 43683   2.8649  97.3998 0008055 349.3336  56.0067  1.00270368 28055",
      "category": "satellite"
    },
    {
      "id": "43687",
      "name": "COSMOS 2529 (757)",
      "noradId": 43687,
      "line1": "1 43687U 18086A   26167.24265345  .00000076  00000+0  00000+0 0  9995",
      "line2": "2 43687  64.2948 192.6264 0012030 256.4930 103.4343  2.13101928 59265",
      "category": "satellite"
    },
    {
      "id": "43706",
      "name": "BEIDOU-3 M17 (C36)",
      "noradId": 43706,
      "line1": "1 43706U 18093A   26167.30959620  .00000069  00000+0  00000+0 0  9990",
      "line2": "2 43706  54.1690 182.3259 0010161 292.0051 116.9455  1.86228323 51524",
      "category": "satellite"
    },
    {
      "id": "43707",
      "name": "BEIDOU-3 M18 (C37)",
      "noradId": 43707,
      "line1": "1 43707U 18093B   26167.09989449  .00000072  00000+0  00000+0 0  9993",
      "line2": "2 43707  54.1695 182.3252 0007997 320.4570  39.5237  1.86226619 51511",
      "category": "satellite"
    },
    {
      "id": "43873",
      "name": "GPS BIII-1  (PRN 04)",
      "noradId": 43873,
      "line1": "1 43873U 18109A   26167.25315374 -.00000020  00000+0  00000+0 0  9997",
      "line2": "2 43873  55.6815  92.2235 0038144 197.9399 331.4075  2.00561425 55050",
      "category": "satellite"
    },
    {
      "id": "44204",
      "name": "BEIDOU-3 IGSO-1 (C38)",
      "noradId": 44204,
      "line1": "1 44204U 19023A   26157.95428288 -.00000215  00000+0  00000+0 0  9993",
      "line2": "2 44204  58.6799  37.7569 0025434 225.6649  92.8731  1.00294886  7105",
      "category": "satellite"
    }
  ]
}